{"type": "FeatureCollection", "features": [ {"type": "Feature", "properties": {"norad_id": 66521, "name": "STARLINK-35915", "group": "last-30-days", "lat": 22.556822308229854, "lon": 121.45640560087206, "alt_km": 360.0997035613909, "timestamp": "2025-12-05T18:53:12.096797+00:00", "meta": {"OBJECT_NAME": "STARLINK-35915", "OBJECT_ID": "2025-265F", "EPOCH": "2025-12-05T06:00:02.000160", "MEAN_MOTION": 15.70706698, "ECCENTRICITY": 0.00013009, "INCLINATION": 42.9999, "RA_OF_ASC_NODE": 98.2162, "ARG_OF_PERICENTER": 267.9245, "MEAN_ANOMALY": 328.7613, "EPHEMERIS_TYPE": 0, "CLASSIFICATION_TYPE": "U", "NORAD_CAT_ID": 66521, "ELEMENT_SET_NO": 999, "REV_AT_EPOCH": 379, "BSTAR": -0.01670306, "MEAN_MOTION_DOT": -0.01893047, "MEAN_MOTION_DDOT": 0}, "tle": {"line1": "1 66521U 25265F   25339.25002315 -.01893047  00000+0 -16703-1 0  9991", "line2": "2 66521  42.9999  98.2162 0001300 267.9245 328.7613 15.70706698  3799"}}, "geometry": {"type": "Point", "coordinates": [121.45640560087206, 22.556822308229854]}}, {"type": "Feature", "properties": {"norad_id": 66522, "name": "STARLINK-35946", "group": "last-30-days", "lat": 23.719036034823972, "lon": 123.11164891586161, "alt_km": 359.940479852301, "timestamp": "2025-12-05T18:53:12.096807+00:00", "meta": {"OBJECT_NAME": "STARLINK-35946", "OBJECT_ID": "2025-265G", "EPOCH": "2025-12-05T06:00:02.000160", "MEAN_MOTION": 15.70703945, "ECCENTRICITY": 0.00013016, "INCLINATION": 42.9998, "RA_OF_ASC_NODE": 98.2113, "ARG_OF_PERICENTER": 268.1956, "MEAN_ANOMALY": 330.4103, "EPHEMERIS_TYPE": 0, "CLASSIFICATION_TYPE": "U", "NORAD_CAT_ID": 66522, "ELEMENT_SET_NO": 999, "REV_AT_EPOCH": 379, "BSTAR": -0.016686337, "MEAN_MOTION_DOT": -0.01891168, "MEAN_MOTION_DDOT": 0}, "tle": {"line1": "1 66522U 25265G   25339.25002315 -.01891168  00000+0 -16686-1 0  9994", "line2": "2 66522  42.9998  98.2113 0001301 268.1956 330.4103 15.70703945  3794"}}, "geometry": {"type": "Point", "coordinates": [123.11164891586161, 23.719036034823972]}}, {"type": "Feature", "properties": {"norad_id": 66523, "name": "STARLINK-35969", "group": "last-30-days", "lat": 24.86269012668937, "lon": 124.79558669402753, "alt_km": 359.81163344925153, "timestamp": "2025-12-05T18:53:12.096817+00:00", "meta": {"OBJECT_NAME": "STARLINK-35969", "OBJECT_ID": "2025-265H", "EPOCH": "2025-12-05T06:00:02.000160", "MEAN_MOTION": 15.70702474, "ECCENTRICITY": 0.0001203, "INCLINATION": 43.0001, "RA_OF_ASC_NODE": 98.2067, "ARG_OF_PERICENTER": 264.5981, "MEAN_ANOMALY": 335.926, "EPHEMERIS_TYPE": 0, "CLASSIFICATION_TYPE": "U", "NORAD_CAT_ID": 66523, "ELEMENT_SET_NO": 999, "REV_AT_EPOCH": 379, "BSTAR": -0.016667534, "MEAN_MOTION_DOT": -0.01889099, "MEAN_MOTION_DDOT": 0}, "tle": {"line1": "1 66523U 25265H   25339.25002315 -.01889099  00000+0 -16668-1 0  9995", "line2": "2 66523  43.0001  98.2067 0001203 264.5981 335.9260 15.70702474  3799"}}, "geometry": {"type": "Point", "coordinates": [124.79558669402753, 24.86269012668937]}}, {"type": "Feature", "properties": {"norad_id": 66524, "name": "STARLINK-35687", "group": "last-30-days", "lat": 25.988092436090955, "lon": 126.51232732256125, "alt_km": 359.6484256856738, "timestamp": "2025-12-05T18:53:12.096826+00:00", "meta": {"OBJECT_NAME": "STARLINK-35687", "OBJECT_ID": "2025-265J", "EPOCH": "2025-12-05T06:00:02.000160", "MEAN_MOTION": 15.70701866, "ECCENTRICITY": 0.00012812, "INCLINATION": 42.9999, "RA_OF_ASC_NODE": 98.2014, "ARG_OF_PERICENTER": 266.9766, "MEAN_ANOMALY": 335.4644, "EPHEMERIS_TYPE": 0, "CLASSIFICATION_TYPE": "U", "NORAD_CAT_ID": 66524, "ELEMENT_SET_NO": 999, "REV_AT_EPOCH": 379, "BSTAR": -0.016659099, "MEAN_MOTION_DOT": -0.01888263, "MEAN_MOTION_DDOT": 0}, "tle": {"line1": "1 66524U 25265J   25339.25002315 -.01888263  00000+0 -16659-1 0  9998", "line2": "2 66524  42.9999  98.2014 0001281 266.9766 335.4644 15.70701866  3794"}}, "geometry": {"type": "Point", "coordinates": [126.51232732256125, 25.988092436090955]}}, {"type": "Feature", "properties": {"norad_id": 66525, "name": "STARLINK-35975", "group": "last-30-days", "lat": 27.09281141011273, "lon": 128.2627651399251, "alt_km": 359.6017667525257, "timestamp": "2025-12-05T18:53:12.096836+00:00", "meta": {"OBJECT_NAME": "STARLINK-35975", "OBJECT_ID": "2025-265K", "EPOCH": "2025-12-05T06:00:02.000160", "MEAN_MOTION": 15.70702344, "ECCENTRICITY": 0.00013867, "INCLINATION": 42.9999, "RA_OF_ASC_NODE": 98.1969, "ARG_OF_PERICENTER": 264.3712, "MEAN_ANOMALY": 339.9853, "EPHEMERIS_TYPE": 0, "CLASSIFICATION_TYPE": "U", "NORAD_CAT_ID": 66525, "ELEMENT_SET_NO": 999, "REV_AT_EPOCH": 379, "BSTAR": -0.016646118, "MEAN_MOTION_DOT": -0.01887066, "MEAN_MOTION_DDOT": 0}, "tle": {"line1": "1 66525U 25265K   25339.25002315 -.01887066  00000+0 -16646-1 0  9995", "line2": "2 66525  42.9999  98.1969 0001386 264.3712 339.9853 15.70702344  3795"}}, "geometry": {"type": "Point", "coordinates": [128.2627651399251, 27.09281141011273]}}, {"type": "Feature", "properties": {"norad_id": 66526, "name": "STARLINK-35932", "group": "last-30-days", "lat": 28.17421553928556, "lon": 130.04588383087838, "alt_km": 359.38905291419724, "timestamp": "2025-12-05T18:53:12.096846+00:00", "meta": {"OBJECT_NAME": "STARLINK-35932", "OBJECT_ID": "2025-265L", "EPOCH": "2025-12-05T06:00:02.000160", "MEAN_MOTION": 15.70703017, "ECCENTRICITY": 0.00013234, "INCLINATION": 42.9999, "RA_OF_ASC_NODE": 98.1923, "ARG_OF_PERICENTER": 266.4195, "MEAN_ANOMALY": 339.8552, "EPHEMERIS_TYPE": 0, "CLASSIFICATION_TYPE": "U", "NORAD_CAT_ID": 66526, "ELEMENT_SET_NO": 999, "REV_AT_EPOCH": 368, "BSTAR": -0.016672531, "MEAN_MOTION_DOT": -0.01889728, "MEAN_MOTION_DDOT": 0}, "tle": {"line1": "1 66526U 25265L   25339.25002315 -.01889728  00000+0 -16673-1 0  9993", "line2": "2 66526  42.9999  98.1923 0001323 266.4195 339.8552 15.70703017  3686"}}, "geometry": {"type": "Point", "coordinates": [130.04588383087838, 28.17421553928556]}}, {"type": "Feature", "properties": {"norad_id": 66527, "name": "STARLINK-35935", "group": "last-30-days", "lat": 29.232055541796896, "lon": 131.8650674360522, "alt_km": 359.19828647237864, "timestamp": "2025-12-05T18:53:12.096857+00:00", "meta": {"OBJECT_NAME": "STARLINK-35935", "OBJECT_ID": "2025-265M", "EPOCH": "2025-12-05T06:00:02.000160", "MEAN_MOTION": 15.70706633, "ECCENTRICITY": 0.00012463, "INCLINATION": 43, "RA_OF_ASC_NODE": 98.1876, "ARG_OF_PERICENTER": 266.7791, "MEAN_ANOMALY": 341.4095, "EPHEMERIS_TYPE": 0, "CLASSIFICATION_TYPE": "U", "NORAD_CAT_ID": 66527, "ELEMENT_SET_NO": 999, "REV_AT_EPOCH": 379, "BSTAR": -0.016704093, "MEAN_MOTION_DOT": -0.01893106, "MEAN_MOTION_DDOT": 0}, "tle": {"line1": "1 66527U 25265M   25339.25002315 -.01893106  00000+0 -16704-1 0  9994", "line2": "2 66527  43.0000  98.1876 0001246 266.7791 341.4095 15.70706633  3798"}}, "geometry": {"type": "Point", "coordinates": [131.8650674360522, 29.232055541796896]}}, {"type": "Feature", "properties": {"norad_id": 66528, "name": "STARLINK-35928", "group": "last-30-days", "lat": 30.265506472501407, "lon": 133.72332518312865, "alt_km": 359.0828442063139, "timestamp": "2025-12-05T18:53:12.096867+00:00", "meta": {"OBJECT_NAME": "STARLINK-35928", "OBJECT_ID": "2025-265N", "EPOCH": "2025-12-05T06:00:02.000160", "MEAN_MOTION": 15.70701582, "ECCENTRICITY": 0.00012932, "INCLINATION": 43, "RA_OF_ASC_NODE": 98.1826, "ARG_OF_PERICENTER": 266.5985, "MEAN_ANOMALY": 343.5106, "EPHEMERIS_TYPE": 0, "CLASSIFICATION_TYPE": "U", "NORAD_CAT_ID": 66528, "ELEMENT_SET_NO": 999, "REV_AT_EPOCH": 379, "BSTAR": -0.016651675, "MEAN_MOTION_DOT": -0.01887504, "MEAN_MOTION_DDOT": 0}, "tle": {"line1": "1 66528U 25265N   25339.25002315 -.01887504  00000+0 -16652-1 0  9992", "line2": "2 66528  43.0000  98.1826 0001293 266.5985 343.5106 15.70701582  3793"}}, "geometry": {"type": "Point", "coordinates": [133.72332518312865, 30.265506472501407]}}, {"type": "Feature", "properties": {"norad_id": 66529, "name": "STARLINK-35933", "group": "last-30-days", "lat": 31.272037979292058, "lon": 135.62078392117408, "alt_km": 358.9842198558463, "timestamp": "2025-12-05T18:53:12.096879+00:00", "meta": {"OBJECT_NAME": "STARLINK-35933", "OBJECT_ID": "2025-265P", "EPOCH": "2025-12-05T06:00:02.000160", "MEAN_MOTION": 15.70698648, "ECCENTRICITY": 0.00013261, "INCLINATION": 42.9999, "RA_OF_ASC_NODE": 98.1775, "ARG_OF_PERICENTER": 265.2633, "MEAN_ANOMALY": 346.7646, "EPHEMERIS_TYPE": 0, "CLASSIFICATION_TYPE": "U", "NORAD_CAT_ID": 66529, "ELEMENT_SET_NO": 999, "REV_AT_EPOCH": 379, "BSTAR": -0.01661327, "MEAN_MOTION_DOT": -0.01883451, "MEAN_MOTION_DDOT": 0}, "tle": {"line1": "1 66529U 25265P   25339.25002315 -.01883451  00000+0 -16613-1 0  9997", "line2": "2 66529  42.9999  98.1775 0001326 265.2633 346.7646 15.70698648  3797"}}, "geometry": {"type": "Point", "coordinates": [135.62078392117408, 31.272037979292058]}}, {"type": "Feature", "properties": {"norad_id": 66530, "name": "STARLINK-35961", "group": "last-30-days", "lat": 32.24940928631817, "lon": 137.5580284541567, "alt_km": 358.83152119882743, "timestamp": "2025-12-05T18:53:12.096891+00:00", "meta": {"OBJECT_NAME": "STARLINK-35961", "OBJECT_ID": "2025-265Q", "EPOCH": "2025-12-05T06:00:02.000160", "MEAN_MOTION": 15.70703792, "ECCENTRICITY": 0.00013755, "INCLINATION": 42.9999, "RA_OF_ASC_NODE": 98.173, "ARG_OF_PERICENTER": 268.5771, "MEAN_ANOMALY": 345.3649, "EPHEMERIS_TYPE": 0, "CLASSIFICATION_TYPE": "U", "NORAD_CAT_ID": 66530, "ELEMENT_SET_NO": 999, "REV_AT_EPOCH": 379, "BSTAR": -0.016678614, "MEAN_MOTION_DOT": -0.01890433, "MEAN_MOTION_DDOT": 0}, "tle": {"line1": "1 66530U 25265Q   25339.25002315 -.01890433  00000+0 -16679-1 0  9999", "line2": "2 66530  42.9999  98.1730 0001375 268.5771 345.3649 15.70703792  3798"}}, "geometry": {"type": "Point", "coordinates": [137.5580284541567, 32.24940928631817]}}]}